IRIDIUM 921 [-]         
1 24873U 97034E   24081.71703166  .00032238  00000+0  99078-3 0  9996
2 24873  86.3868 331.2310 0002604 177.0702 183.0564 15.33553468461757
IRIDIUM 26 [-]          
1 24903U 97043A   24081.68867880  .00000660  00000+0  21944-3 0  9991
2 24903  86.3926 300.5002 0002179  93.4058 266.7388 14.36246482391779
IRIDIUM 22 [-]          
1 24907U 97043E   24082.16485009  .00000638  00000+0  21677-3 0  9996
2 24907  86.3935 303.4698 0002042  86.9699 273.1731 14.35141907391918
DUMMY MASS 1 [-]        
1 24925U 97048A   24081.79677127  .00000827  00000+0  91271-4 0  9991
2 24925  86.3393 344.3746 0005244 327.4779  32.6121 14.86101111437925
DUMMY MASS 2 [-]        
1 24926U 97048B   24082.15594418  .00000850  00000+0  94490-4 0  9996
2 24926  86.3396 345.7354 0006359 336.5683  23.5251 14.85861005438009
IRIDIUM 29 [-]          
1 24944U 97051A   24081.77693830  .00000651  00000+0  21906-3 0  9995
2 24944  86.3991 333.5639 0001917  83.2632 276.8782 14.35600565388346
IRIDIUM 33 [-]          
1 24946U 97051C   24082.21101385  .00000483  00000+0  16513-3 0  9997
2 24946  86.3904 332.6406 0009854 108.1115 252.1154 14.34289794387957
IRIDIUM 28 [-]          
1 24948U 97051E   24081.76899445  .00000666  00000+0  22032-3 0  9995
2 24948  86.3993 331.3434 0002463  93.5926 266.5553 14.36549403388872
